{"type": "FeatureCollection", "features": [ {"type": "Feature", "properties": {"norad_id": 37834, "name": "INTELSAT 18 (IS-18)", "group": "intelsat", "lat": -0.017885964964971846, "lon": 179.34185412231656, "alt_km": 35785.06342732797, "timestamp": "2025-12-07T18:50:16.391910+00:00", "meta": {"OBJECT_NAME": "INTELSAT 18 (IS-18)", "OBJECT_ID": "2011-056A", "EPOCH": "2025-12-07T04:13:09.075936", "MEAN_MOTION": 1.00271911, "ECCENTRICITY": 0.00021384, "INCLINATION": 0.0167, "RA_OF_ASC_NODE": 328.3083, "ARG_OF_PERICENTER": 295.1268, "MEAN_ANOMALY": 56.0568, "EPHEMERIS_TYPE": 0, "CLASSIFICATION_TYPE": "U", "NORAD_CAT_ID": 37834, "ELEMENT_SET_NO": 999, "REV_AT_EPOCH": 5188, "BSTAR": 0, "MEAN_MOTION_DOT": 5.8e-07, "MEAN_MOTION_DDOT": 0}, "tle": {"line1": "1 37834U 11056A   25341.17579949  .00000058  00000+0  00000+0 0  9995", "line2": "2 37834   0.0167 328.3083 0002138 295.1268  56.0568  1.00271911 51889"}}, "geometry": {"type": "Point", "coordinates": [179.34185412231656, -0.017885964964971846]}}, {"type": "Feature", "properties": {"norad_id": 38098, "name": "INTELSAT 22 (IS-22)", "group": "intelsat", "lat": 0.022774587717764323, "lon": 71.47675942117412, "alt_km": 35793.407458072616, "timestamp": "2025-12-07T18:50:16.391922+00:00", "meta": {"OBJECT_NAME": "INTELSAT 22 (IS-22)", "OBJECT_ID": "2012-011A", "EPOCH": "2025-12-07T03:27:38.581920", "MEAN_MOTION": 1.0027115, "ECCENTRICITY": 0.00017495, "INCLINATION": 0.0103, "RA_OF_ASC_NODE": 33.7815, "ARG_OF_PERICENTER": 232.7098, "MEAN_ANOMALY": 293.6994, "EPHEMERIS_TYPE": 0, "CLASSIFICATION_TYPE": "U", "NORAD_CAT_ID": 38098, "ELEMENT_SET_NO": 999, "REV_AT_EPOCH": 526, "BSTAR": 0, "MEAN_MOTION_DOT": -5.4e-07, "MEAN_MOTION_DDOT": 0}, "tle": {"line1": "1 38098U 12011A   25341.14419655 -.00000054  00000+0  00000+0 0  9991", "line2": "2 38098   0.0103  33.7815 0001749 232.7098 293.6994  1.00271150  5265"}}, "geometry": {"type": "Point", "coordinates": [71.47675942117412, 0.022774587717764323]}}, {"type": "Feature", "properties": {"norad_id": 38356, "name": "INTELSAT 19 (IS-19)", "group": "intelsat", "lat": 0.0070695156455953135, "lon": 165.3240866220449, "alt_km": 35788.60018952653, "timestamp": "2025-12-07T18:50:16.391934+00:00", "meta": {"OBJECT_NAME": "INTELSAT 19 (IS-19)", "OBJECT_ID": "2012-030A", "EPOCH": "2025-12-07T05:51:52.119936", "MEAN_MOTION": 1.00270369, "ECCENTRICITY": 0.00035304, "INCLINATION": 0.0106, "RA_OF_ASC_NODE": 13.2827, "ARG_OF_PERICENTER": 250.2868, "MEAN_ANOMALY": 66.6704, "EPHEMERIS_TYPE": 0, "CLASSIFICATION_TYPE": "U", "NORAD_CAT_ID": 38356, "ELEMENT_SET_NO": 999, "REV_AT_EPOCH": 4852, "BSTAR": 0, "MEAN_MOTION_DOT": -5.2e-07, "MEAN_MOTION_DDOT": 0}, "tle": {"line1": "1 38356U 12030A   25341.24435324 -.00000052  00000+0  00000+0 0  9999", "line2": "2 38356   0.0106  13.2827 0003530 250.2868  66.6704  1.00270369 48525"}}, "geometry": {"type": "Point", "coordinates": [165.3240866220449, 0.0070695156455953135]}}, {"type": "Feature", "properties": {"norad_id": 38740, "name": "INTELSAT 20 (IS-20)", "group": "intelsat", "lat": 0.0035700726797540596, "lon": 67.84562318046663, "alt_km": 35791.55653599426, "timestamp": "2025-12-07T18:50:16.391947+00:00", "meta": {"OBJECT_NAME": "INTELSAT 20 (IS-20)", "OBJECT_ID": "2012-043A", "EPOCH": "2025-12-07T02:03:38.498400", "MEAN_MOTION": 1.00270865, "ECCENTRICITY": 0.00029761, "INCLINATION": 0.0012, "RA_OF_ASC_NODE": 67.5911, "ARG_OF_PERICENTER": 114.906, "MEAN_ANOMALY": 353.0414, "EPHEMERIS_TYPE": 0, "CLASSIFICATION_TYPE": "U", "NORAD_CAT_ID": 38740, "ELEMENT_SET_NO": 999, "REV_AT_EPOCH": 4882, "BSTAR": 0, "MEAN_MOTION_DOT": -1.9e-07, "MEAN_MOTION_DDOT": 0}, "tle": {"line1": "1 38740U 12043A   25341.08586225 -.00000019  00000+0  00000+0 0  9992", "line2": "2 38740   0.0012  67.5911 0002976 114.9060 353.0414  1.00270865 48822"}}, "geometry": {"type": "Point", "coordinates": [67.84562318046663, 0.0035700726797540596]}}, {"type": "Feature", "properties": {"norad_id": 38749, "name": "INTELSAT 21 (IS-21)", "group": "intelsat", "lat": -0.028836287299177032, "lon": -58.61153183929512, "alt_km": 35780.11828399101, "timestamp": "2025-12-07T18:50:16.391959+00:00", "meta": {"OBJECT_NAME": "INTELSAT 21 (IS-21)", "OBJECT_ID": "2012-045A", "EPOCH": "2025-12-07T06:30:40.902336", "MEAN_MOTION": 1.00271038, "ECCENTRICITY": 0.00022479, "INCLINATION": 0.0164, "RA_OF_ASC_NODE": 353.1669, "ARG_OF_PERICENTER": 259.0702, "MEAN_ANOMALY": 223.7362, "EPHEMERIS_TYPE": 0, "CLASSIFICATION_TYPE": "U", "NORAD_CAT_ID": 38749, "ELEMENT_SET_NO": 999, "REV_AT_EPOCH": 4860, "BSTAR": 0, "MEAN_MOTION_DOT": -2.8e-06, "MEAN_MOTION_DDOT": 0}, "tle": {"line1": "1 38749U 12045A   25341.27130674 -.00000280  00000+0  00000+0 0  9997", "line2": "2 38749   0.0164 353.1669 0002247 259.0702 223.7362  1.00271038 48602"}}, "geometry": {"type": "Point", "coordinates": [-58.61153183929512, -0.028836287299177032]}}, {"type": "Feature", "properties": {"norad_id": 38867, "name": "INTELSAT 23 (IS-23)", "group": "intelsat", "lat": -0.0353914773899363, "lon": -53.65773460976485, "alt_km": 35786.00341291478, "timestamp": "2025-12-07T18:50:16.391971+00:00", "meta": {"OBJECT_NAME": "INTELSAT 23 (IS-23)", "OBJECT_ID": "2012-057A", "EPOCH": "2025-12-06T11:42:00.871776", "MEAN_MOTION": 1.00267666, "ECCENTRICITY": 0.00016876, "INCLINATION": 0.0474, "RA_OF_ASC_NODE": 98.6565, "ARG_OF_PERICENTER": 128.5865, "MEAN_ANOMALY": 330.7637, "EPHEMERIS_TYPE": 0, "CLASSIFICATION_TYPE": "U", "NORAD_CAT_ID": 38867, "ELEMENT_SET_NO": 999, "REV_AT_EPOCH": 4802, "BSTAR": 0, "MEAN_MOTION_DOT": -2.78e-06, "MEAN_MOTION_DDOT": 0}, "tle": {"line1": "1 38867U 12057A   25340.48751009 -.00000278  00000+0  00000+0 0  9991", "line2": "2 38867   0.0474  98.6565 0001687 128.5865 330.7637  1.00267666 48022"}}, "geometry": {"type": "Point", "coordinates": [-53.65773460976485, -0.0353914773899363]}}, {"type": "Feature", "properties": {"norad_id": 39360, "name": "FM-6", "group": "intelsat", "lat": 0.0005141248467646157, "lon": -116.75581092029445, "alt_km": 35782.29385278975, "timestamp": "2025-12-07T18:50:16.391983+00:00", "meta": {"OBJECT_NAME": "FM-6", "OBJECT_ID": "2013-058A", "EPOCH": "2025-12-07T01:30:10.601280", "MEAN_MOTION": 1.00268695, "ECCENTRICITY": 0.00031192, "INCLINATION": 0.0099, "RA_OF_ASC_NODE": 99.8238, "ARG_OF_PERICENTER": 74.0345, "MEAN_ANOMALY": 168.6312, "EPHEMERIS_TYPE": 0, "CLASSIFICATION_TYPE": "U", "NORAD_CAT_ID": 39360, "ELEMENT_SET_NO": 999, "REV_AT_EPOCH": 4414, "BSTAR": 0, "MEAN_MOTION_DOT": -1.1e-07, "MEAN_MOTION_DDOT": 0}, "tle": {"line1": "1 39360U 13058A   25341.06262270 -.00000011  00000+0  00000+0 0  9999", "line2": "2 39360   0.0099  99.8238 0003119  74.0345 168.6312  1.00268695 44144"}}, "geometry": {"type": "Point", "coordinates": [-116.75581092029445, 0.0005141248467646157]}}, {"type": "Feature", "properties": {"norad_id": 40271, "name": "INTELSAT 30 (IS-30)", "group": "intelsat", "lat": -0.03300120070733808, "lon": -95.69611811504446, "alt_km": 35791.55594322897, "timestamp": "2025-12-07T18:50:16.391995+00:00", "meta": {"OBJECT_NAME": "INTELSAT 30 (IS-30)", "OBJECT_ID": "2014-062A", "EPOCH": "2025-12-07T07:23:22.684416", "MEAN_MOTION": 1.00269737, "ECCENTRICITY": 0.00011563, "INCLINATION": 0.0141, "RA_OF_ASC_NODE": 18.2211, "ARG_OF_PERICENTER": 60.6068, "MEAN_ANOMALY": 13.2937, "EPHEMERIS_TYPE": 0, "CLASSIFICATION_TYPE": "U", "NORAD_CAT_ID": 40271, "ELEMENT_SET_NO": 999, "REV_AT_EPOCH": 486, "BSTAR": 0, "MEAN_MOTION_DOT": -1.46e-06, "MEAN_MOTION_DDOT": 0}, "tle": {"line1": "1 40271U 14062A   25341.30790144 -.00000146  00000+0  00000+0 0  9990", "line2": "2 40271   0.0141  18.2211 0001156  60.6068  13.2937  1.00269737  4864"}}, "geometry": {"type": "Point", "coordinates": [-95.69611811504446, -0.03300120070733808]}}, {"type": "Feature", "properties": {"norad_id": 40333, "name": "DIRECTV 14", "group": "intelsat", "lat": -0.04097453234677702, "lon": -99.85743085675541, "alt_km": 35785.36792287115, "timestamp": "2025-12-07T18:50:16.392006+00:00", "meta": {"OBJECT_NAME": "DIRECTV 14", "OBJECT_ID": "2014-078B", "EPOCH": "2025-12-07T07:20:22.739136", "MEAN_MOTION": 1.00270193, "ECCENTRICITY": 3.122e-05, "INCLINATION": 0.0179, "RA_OF_ASC_NODE": 340.3024, "ARG_OF_PERICENTER": 252.883, "MEAN_ANOMALY": 214.0195, "EPHEMERIS_TYPE": 0, "CLASSIFICATION_TYPE": "U", "NORAD_CAT_ID": 40333, "ELEMENT_SET_NO": 999, "REV_AT_EPOCH": 4012, "BSTAR": 0, "MEAN_MOTION_DOT": -1.21e-06, "MEAN_MOTION_DDOT": 0}, "tle": {"line1": "1 40333U 14078B   25341.30581874 -.00000121  00000+0  00000+0 0  9997", "line2": "2 40333   0.0179 340.3024 0000312 252.8830 214.0195  1.00270193 40124"}}, "geometry": {"type": "Point", "coordinates": [-99.85743085675541, -0.04097453234677702]}}, {"type": "Feature", "properties": {"norad_id": 40663, "name": "DIRECTV 15", "group": "intelsat", "lat": -0.019789774178605807, "lon": -103.4970292208257, "alt_km": 35784.81568465696, "timestamp": "2025-12-07T18:50:16.392018+00:00", "meta": {"OBJECT_NAME": "DIRECTV 15", "OBJECT_ID": "2015-026A", "EPOCH": "2025-12-06T21:44:10.308768", "MEAN_MOTION": 1.00270123, "ECCENTRICITY": 4.561e-05, "INCLINATION": 0.0385, "RA_OF_ASC_NODE": 80.1364, "ARG_OF_PERICENTER": 150.8974, "MEAN_ANOMALY": 68.0869, "EPHEMERIS_TYPE": 0, "CLASSIFICATION_TYPE": "U", "NORAD_CAT_ID": 40663, "ELEMENT_SET_NO": 999, "REV_AT_EPOCH": 3853, "BSTAR": 0, "MEAN_MOTION_DOT": -9.7e-07, "MEAN_MOTION_DDOT": 0}, "tle": {"line1": "1 40663U 15026A   25340.90567487 -.00000097  00000+0  00000+0 0  9998", "line2": "2 40663   0.0385  80.1364 0000456 150.8974  68.0869  1.00270123 38530"}}, "geometry": {"type": "Point", "coordinates": [-103.4970292208257, -0.019789774178605807]}}]}